METAR Data


KATL 061752Z 33009G15KT 10SM CLR 32/14 A2994 RMK AO2 SLP126 T03170144 10382 20206 57079

KBOS 061754Z 06010KT 10SM SCT017 BKN150 BKN250 20/15 A3000 RMK AO2 SLP159 T02000150 10220 20177 58035

KBWI 061754Z 01008KT 10SM OVC022 21/16 A2978 RMK AO2 SLP084 T02110156 10277 20210 58096

KCLE 061751Z 35011KT 10SM OVC065 21/14 A2993 RMK AO2 WSHFT 1716 SLP134 T02060144 10254 20172 55030 $

KCLT 061752Z VRB05KT 10SM FEW060 FEW250 32/16 A2986 RMK AO2 SLP099 T03170161 10312 20238 58080

KCVG 061752Z 21009KT 10SM BKN030 OVC045 24/14 A2991 RMK AO2 SLP120 T02440144 10204 20114 56031

KDCA 061752Z 36015KT 10SM BKN024 OVC060 23/16 A2979 RMK AO2 SLP086 T02280156 1068 20271 58095

KDEN 061753Z 10009KT 10SM FEW015 SCT025 BKN120 25/17 A3033 RMK AO2 SLP185 T02500167 10250 20164 58072

KDFW 061753Z VRB04KT 10SM SCT065 36/16 A3004 RMK AO2 SLP163 T03560161 10361 20273 58087

KDTW 061753Z 02004KT 10SM BKN035 OVC055 20/14 A2991 RMK AO2 RAB32E45DZB45E51 SLP125 P0001 60001 T02000144 10251 20160 58084

KEWR 061751Z 05013G23KT 10SM -RA BKN020 OVC027 18/15 A2987 RMK AO2 RAB47 SLP115 P0000 60000 T01830150 10230 20148 58073 $

KFLL 061753Z 25011KT 10SM SCT045 SCT250 34/22 A2993 RMK AO2 SLP134 T03390222 10374 20238 58027

KIAD 061752Z 35013KT 10SM SCT065 BKN150 BKN250 23/13 A2980 RMK AO2 SLP086 T02280133 10218 20163 58087

KIAH 061753Z 19005KT 10SM SCT060 36/19 A3005 RMK AO2 SLP175 T03560189 10356 20244 58090

KJFK 061751Z 05016KT 3SM R04R/5500VP6000FT RA BR FEW014 BKN032 OVC040 16/15 A2988 RMK AO2 SLP116 P0002 60003 T01610150 10114 20131 58025

KLAS 061756Z 35006KT 10SM FEW120 FEW250 36/12 A3004 RMK AO2 SLP142 T03560117 10386 20263 58011

KLAX 061753Z COR 26008KT 10SM FEW018 SCT160 27/17 A3003 RMK AO2 SLP168 T02720172 10259 20242 51036

KLGA 061751Z 06017G25KT 10SM BKN022 BKN030 OVC039 18/14 A2987 RMK AO2 PK WND 06026/1717 RAE23 SLP113 P0001 60001 T01830144 10216 20123 58085

KMCO 061753Z 25013KT 10SM SCT055 SCT280 34/21 A2989 RMK AO2 SLP118 T03440211 10334 20297 58058

KMDW 061753Z 33014KT 10SM BKN027 OVC039 23/17 A2991 RMK AO2 SLP122 T02330167 10243 20174 52071

KMEM 061754Z 27007KT 10SM CLR 32/23 A3002 RMK AO2 SLP162 T03170228 10377 20231 58022

KMIA 061753Z 25010G16KT 10SM SCT042 SCT250 34/22 A2994 RMK AO2 SLP139 T03440222 10354 20293 57005

KMSP 061753Z 35007KT 10SM SCT035 23/14 A3012 RMK AO2 SLP195 T02280139 10238 20158 50063

KORD 061751Z 33013G18KT 10SM BKN027 OVC034 22/16 A2992 RMK AO2 SLP129 T02170161 10262 20174 $

KPDX 061753Z 35004KT 10SM BKN026 BKN032 22/14 A3010 RMK AO2 SLP192 T02220144 10262 20169 51000

KPHL 061820Z 04016G23KT 10SM SCT015 BKN021 OVC028 18/14 A2979 RMK AO2 PK WND 04026/1802 T01780144

KPHX 061751Z VRB05KT 10SM FEW070 FEW170 SCT190 36/18 A2997 RMK AO2 SLP126 T03560178 10346 20307 50041

KPIT 061751Z 16004KT 10SM FEW040 SCT120 SCT250 23/13 A2987 RMK AO2 SLP116 T02330128 10264 20189 58076

KSAN 061751Z 27006KT 10SM FEW010 FEW200 28/21 A3003 RMK AO2 SLP170 T02780211 10288 20237 50023

KSEA 061753Z 22008KT 10SM FEW009 BKN140 19/14 A3009 RMK AO2 SLP194 T01940144 10256 20141 51029 $

KSFO 061814Z 25010KT 10SM FEW009 19/13 A3011 RMK AO2 T01940133

KSLC 061754Z 13010KT 10SM FEW085 SCT110 BKN160 BKN250 26/14 A3021 RMK AO2 SLP178 CB DSNT NE ACSL DSNT SE AND SW 60001 T02560139 10271 20184 51033

KSTL 061751Z 30010G17KT 10SM SCT027 SCT250 31/22 A2997 RMK AO2 SLP138 T03060222 10366 20252 53031

KTPA 061753Z 25011KT 10SM SCT035 SCT250 33/27 A2992 RMK AO2 SLP131 T03330272 58070
